EUTELSAT 8 WEST B       
1 40875U 15039B   25332.07829404 -.00000046  00000+0  00000+0 0  9990
2 40875   0.0682   9.3442 0004188 241.6921 196.3994  1.00271648 37640
EUTELSAT 9B             
1 41310U 16005A   25332.08158741  .00000081  00000+0  00000+0 0  9997
2 41310   0.0518  71.3277 0004514 189.2543 205.0418  1.00270389 36108
EUTELSAT 65 WEST A      
1 41382U 16014A   25332.13826773 -.00000257  00000+0  00000+0 0  9995
2 41382   0.0639  32.5262 0002446 217.6427 161.7048  1.00273619 35513
EUTELSAT 117 WEST B     
1 41589U 16038B   25331.69999222  .00000008  00000+0  00000+0 0  9993
2 41589   0.0056 134.9195 0000242 135.2793 291.6722  1.00271463 34640
EUTELSAT 172B           
1 42741U 17029B   25332.18794566  .00000014  00000+0  00000+0 0  9991
2 42741   0.0375 146.5972 0000098 331.1983 189.2244  1.00270010 31717
EUTELSAT 7C             
1 44334U 19034B   25332.08124073  .00000068  00000+0  00000+0 0  9997
2 44334   0.0774 184.1181 0003126  43.5632 235.8317  1.00269117  4816
EUTELSAT 5 WEST B       
1 44624U 19067A   25332.07881405 -.00000022  00000+0  00000+0 0  9994
2 44624   0.0638 342.4333 0003305 263.5966 204.5999  1.00271299 22428
EUTELSAT KONNECT        
1 45027U 20005B   25330.08357684  .00000069  00000+0  00000+0 0  9992
2 45027   0.0673  99.8219 0001391 197.5930 165.1507  1.00270244 22292
